DMC3-FM1                
1 40715U 15032A   21010.81483228  .00000018  00000-0  10427-4 0  9995
2 40715  97.9107 265.6094 0014198 280.3587  79.6022 14.73682632296195
DMC3-FM2                
1 40716U 15032B   21010.83751337  .00000027  00000-0  11687-4 0  9996
2 40716  97.9136 266.0563 0011571 290.7953  69.2016 14.73696400296206
DMC3-FM3                
1 40717U 15032C   21010.85968941  .00000022  00000-0  10974-4 0  9993
2 40717  97.9150 266.8360 0015165 281.4739  78.4766 14.73697974296209
CARBONITE 1 (CBNT-1)    
1 40718U 15032D   21010.86104337  .00000183  00000-0  34516-4 0  9992
2 40718  97.8092 250.8104 0015349 263.0556  96.8905 14.74897663296386
NAVSTAR 74 (USA 262)    
1 40730U 15033A   21010.37952903 -.00000084  00000-0  00000-0 0  9991
2 40730  55.4897 347.6816 0060747 355.2897   4.6489  2.00551751 40205
METEOSAT-11 (MSG-4)     
1 40732U 15034A   21010.71824581  .00000006  00000-0  00000-0 0  9995
2 40732   0.3495 261.1294 0001059 281.4129 187.2618  1.00282573 20155
STAR ONE C4             
1 40733U 15034B   21010.48856003 -.00000263  00000-0  00000-0 0  9990
2 40733   0.0206  28.6665 0002240 284.2297 263.1981  1.00270377 20135
WGS F7 (USA 263)        
1 40746U 15036A   21010.75296578  .00000018  00000-0  00000-0 0  9998
2 40746   0.0451  84.0518 0000272 318.4483 154.0359  1.00272189 19996
BEIDOU 18               
1 40748U 15037A   21010.48437270 -.00000081  00000-0  00000-0 0  9998
2 40748  55.9436   9.3698 0004280 320.5530 216.7313  1.86233523 37178
BEIDOU 19               
1 40749U 15037B   21010.79331728 -.00000083  00000-0  00000-0 0  9996
2 40749  55.9475   9.3480 0007072 297.0301 224.1694  1.86232260 37179
INTELSAT 34 (IS-34)     
1 40874U 15039A   21010.56331455 -.00000284  00000-0  00000-0 0  9992
2 40874   0.0277  45.8698 0000822 122.0903  89.6409  1.00268305 19742
EUTELSAT 8 WEST B       
1 40875U 15039B   21010.78829639 -.00000065  00000-0  00000-0 0  9990
2 40875   0.0703  40.2042 0001940 271.6520  74.4368  1.00272075 19764
YAOGAN 27               
1 40878U 15040A   21010.93358386 -.00000021  00000-0  58662-4 0  9991
2 40878 100.2034  58.1722 0009189 107.7009 252.5105 13.15967737258302
GSAT-6                  
1 40880U 15041A   21010.80635424 -.00000160  00000-0  00000-0 0  9995
2 40880   0.0650 100.5713 0005311 156.4707 226.2692  1.00271462 19754
INMARSAT 5-F3           
1 40882U 15042A   21010.75392537  .00000050  00000-0  00000-0 0  9994
2 40882   0.0033 117.9384 0000056  25.1568  58.3660  1.00271382 19687
MUOS-4                  
1 40887U 15044A   21010.73316317 -.00000089  00000-0  00000-0 0  9994
2 40887   2.7669 349.1666 0057147 357.0882 103.1403  1.00271395 19674
GSAT0205 (GALILEO 9)    
1 40889U 15045A   21009.23417242 -.00000010  00000-0  00000-0 0  9993
2 40889  55.9931 276.4332 0005718   8.7322 351.3316  1.70474482 33176
GSAT0206 (GALILEO 10)   
1 40890U 15045B   21010.04027437 -.00000008  00000-0  00000-0 0  9996
2 40890  55.9921 276.4073 0004027 359.2886   0.7680  1.70474668 33210
TJS-1                   
1 40892U 15046A   21011.02132490 -.00000157  00000-0  00000+0 0  9998
2 40892   0.0792  88.9336 0002081 278.8874 265.5204  1.00272915 19668
GAOFEN 9-01             
1 40894U 15047A   21010.90108346  .00000020  00000-0  10191-4 0  9995
2 40894  97.8730  91.1743 0034619  98.4336 262.0777 14.76296285287088
EXPRESS-AM8             
1 40895U 15048A   21010.93864590 -.00000111  00000-0  00000-0 0  9996
2 40895   0.0422 214.8486 0000048  67.8553 151.8550  1.00271169 19490
2015-049A               
1 40899U 15049A   21010.82638412  .00000552  00000-0  31307-4 0  9997
2 40899  97.4726  16.4787 0015774  30.4352  47.4943 15.16965150293858
NUDT-PHONESAT           
1 40900U 15049B   21010.80814131  .00003157  00000-0  12818-3 0  9991
2 40900  97.4261  26.0410 0011867 342.5931 190.7213 15.25279555294786
ZDPS 2A                 
1 40901U 15049C   21010.83943144  .00001433  00000-0  71778-4 0  9998
2 40901  97.4630  19.8831 0013808  17.9978  59.4802 15.18915818294040
ZDPS 2B                 
1 40902U 15049D   21010.82152064  .00001616  00000-0  80494-4 0  9999
2 40902  97.4648  17.1487 0013841  15.7955  62.3815 15.18930714294012
XW-2A                   
1 40903U 15049E   21010.83334123  .00002500  00000-0  56329-4 0  9992
2 40903  97.2612  65.7032 0011323 224.0389 256.3194 15.44189140298462
KAITUO 1A               
1 40904U 15049F   21010.80654775  .00000716  00000-0  40716-4 0  9998
2 40904  97.4831  14.7971 0015442  30.3652  72.5211 15.15958521293650
2015-049G               
1 40905U 15049G   21010.78561128  .00000751  00000-0  43902-4 0  9994
2 40905  97.4942  11.8989 0016386  28.7724  73.3576 15.14787690293468
XW-2C                   
1 40906U 15049H   21010.80079712  .00000991  00000-0  54323-4 0  9996
2 40906  97.4827  15.1971 0015361  21.4276  55.6127 15.16420082293672
XW-2D                   
1 40907U 15049J   21010.82653154  .00000872  00000-0  47856-4 0  9998
2 40907  97.4816  14.9697 0014615  17.9595  60.7535 15.16696887293700
LILACSAT-2              
1 40908U 15049K   21010.81997769  .00000303  00000-0  20119-4 0  9993
2 40908  97.4990  13.0307 0016779  30.2362  47.2755 15.14247186293374
XW-2F                   
1 40910U 15049M   21010.78386979  .00001524  00000-0  77020-4 0  9996
2 40910  97.4711  17.8014 0014641   6.3218  80.7271 15.18506372293795
XW-2B                   
1 40911U 15049N   21010.82083074  .00000873  00000-0  48001-4 0  9995
2 40911  97.4818  15.6607 0014624  19.0589  59.3176 15.16617960293599
KAITUO 1B               
1 40912U 15049P   21010.77704792  .00001643  00000-0  77137-4 0  9995
2 40912  97.4477  22.1086 0014130 340.9889 105.2909 15.20973672294222
COSMOS 2507             
1 40920U 15050A   21010.71714822  .00000002  00000-0 -53264-4 0  9999
2 40920  82.4915 234.4372 0009398 356.3115   3.7894 12.42877765240482
COSMOS 2508             
1 40921U 15050B   21010.74234180  .00000013  00000-0  23671-4 0  9997
2 40921  82.4870 233.6908 0014458  29.6147 330.5738 12.42877530240474
COSMOS 2509             
1 40922U 15050C   21010.68989722  .00000017  00000-0  48479-4 0  9997
2 40922  82.4868 233.7929 0016300  42.4349 317.7985 12.42884591240477
PUJIANG 1 (PJ-1)        
1 40925U 15051A   21010.83073201  .00001215  00000-0  38938-4 0  9994
2 40925  97.1309  27.4207 0012528 185.9476 276.1131 15.34180332296278
TIANWANG 1C (TW-1C)     
1 40926U 15051B   21010.82600049  .00104484  00000-0  40070-3 0  9991
2 40926  97.0531  71.6014 0002427  14.8515  95.8731 15.87135165299618
TIANWANG 1A (TW-1A)     
1 40928U 15051D   21010.84123275  .00003831  00000-0  85094-4 0  9996
2 40928  97.0929  39.5803 0010893 141.0442  31.7368 15.44230191297350
ASTROSAT                
1 40930U 15052A   21010.49277599  .00000729  00000-0  13282-4 0  9993
2 40930   5.9971 306.5482 0008821 314.6470  45.2939 14.76363357285823
LAPAN-A2                
1 40931U 15052B   21010.70152790  .00000560  00000-0 -11228-4 0  9995
2 40931   6.0022 297.4312 0013781 329.7098  30.2266 14.76657288285946
LEMUR-2-JOEL            
1 40932U 15052C   21010.49658659  .00000882  00000-0  31527-4 0  9997
2 40932   6.0077 276.4687 0013287  13.8586 346.1906 14.78084529286083
LEMUR-2-CHRIS           
1 40933U 15052D   21010.50076271  .00000871  00000-0  29802-4 0  9995
2 40933   6.0055 273.0608 0013954  22.1675 337.9055 14.78226408286110
LEMUR-2-PETER           
1 40935U 15052F   21010.58220909  .00000870  00000-0  31313-4 0  9993
2 40935   6.0044 291.8474 0010549 336.5893  23.3755 14.77382940285968
EXACTVIEW 9             
1 40936U 15052G   21010.32389465  .00000786  00000-0  20613-4 0  9996
2 40936   6.0039 305.1274 0010861 308.8693  51.0466 14.76641227285813
BEIDOU 20               
1 40938U 15053A   21010.08233561 -.00000143  00000-0  00000+0 0  9998
2 40938  52.3068 281.8759 0046066 191.0523 123.0881  1.00272270 19467
SKY MUSTER 1 (NBN1A)    
1 40940U 15054A   21010.64877569 -.00000278  00000-0  00000-0 0  9996
2 40940   0.0140 338.0832 0001532 314.4888 191.5955  1.00270731 19374
ARSAT 2                 
1 40941U 15054B   21010.55834209 -.00000223  00000-0  00000-0 0  9991
2 40941   0.0454 268.5019 0001519   9.2686 312.5093  1.00272276 19438
MORELOS 3               
1 40946U 15056A   21010.63176458 -.00000037  00000-0  00000-0 0  9995
2 40946   4.4947 329.5627 0002975 357.9613 257.1615  1.00272169 19391
LINGQIAO VIDEO A        
1 40959U 15057B   21010.88819268  .00000000  00000-0  75744-5 0  9991
2 40959  97.8283  73.7706 0017454 199.6682 160.3849 14.73330036283080
LINGQIAO VIDEO B        
1 40960U 15057C   21010.87518941  .00000009  00000-0  88799-5 0  9999
2 40960  97.8306  74.3248 0017558 200.8199 159.2287 14.73447488283105
JILIN 1                 
1 40961U 15057D   21010.88068425  .00000044  00000-0  14115-4 0  9997
2 40961  97.8352  75.4871 0017749 199.5142 160.5381 14.73778534283159
AEROCUBE 5C             
1 40965U 15058B   21010.75709126  .00000104  00000-0  31009-4 0  9996
2 40965  64.7765 236.0050 0188094   0.4968 359.6287 14.74650864 71872
AEROCUBE 7              
1 40966U 15058C   21010.76144224  .00000153  00000-0  36332-4 0  9998
2 40966  64.7764 234.1696 0187049   0.1597 359.9533 14.74980490 71880
APSTAR 9                
1 40982U 15059A   21010.81821836 -.00000266  00000-0  00000-0 0  9999
2 40982   0.0171  45.5936 0001897 118.3998  23.1047  1.00269415 19241
TURKSAT 4B              
1 40984U 15060A   21010.79981154  .00000115  00000-0  00000-0 0  9992
2 40984   0.0204 311.9539 0001715 347.3920 149.0820  1.00268963 19229
TIANHUI 1-03            
1 40988U 15061A   21010.84853686  .00000912  00000-0  41197-4 0  9992
2 40988  97.3412 135.7417 0010470  88.5071  67.8619 15.23400212289776
NAVSTAR 75 (USA 265)    
1 41019U 15062A   21010.42297094 -.00000051  00000-0  00000-0 0  9997
2 41019  55.4520 108.4890 0064885 211.6439 147.9635  2.00563825 38046
